{"fetched_at":"2026-07-12T07:16:01.047Z","source":"https://celestrak.org/NORAD/elements/gp.php?NAME=SPOT&FORMAT=JSON","constellation":"spot","records":[{"OBJECT_NAME":"SPOT 6","OBJECT_ID":"2012-047A","EPOCH":"2026-07-11T23:07:04.819008","CLASSIFICATION_TYPE":"U","MEAN_MOTION":14.58537053,"ECCENTRICITY":0.0001146,"INCLINATION":98.2113,"RA_OF_ASC_NODE":259.9806,"ARG_OF_PERICENTER":82.3802,"MEAN_ANOMALY":277.7527,"EPHEMERIS_TYPE":0,"NORAD_CAT_ID":38755,"ELEMENT_SET_NO":999,"REV_AT_EPOCH":73666,"BSTAR":4.52173e-7,"MEAN_MOTION_DOT":-4.4e-7,"MEAN_MOTION_DDOT":0},{"OBJECT_NAME":"SPOT 7","OBJECT_ID":"2014-034A","EPOCH":"2026-07-11T23:23:10.466880","CLASSIFICATION_TYPE":"U","MEAN_MOTION":14.60978875,"ECCENTRICITY":0.00015625,"INCLINATION":98.0623,"RA_OF_ASC_NODE":254.8258,"ARG_OF_PERICENTER":96.8863,"MEAN_ANOMALY":263.2516,"EPHEMERIS_TYPE":0,"NORAD_CAT_ID":40053,"ELEMENT_SET_NO":999,"REV_AT_EPOCH":64075,"BSTAR":0.00003506059,"MEAN_MOTION_DOT":0.00000127,"MEAN_MOTION_DDOT":0}]}
