SPOT 6                  
1 38755U 12047A   26192.96325022 -.00000044  00000+0  45217-6 0  9994
2 38755  98.2113 259.9806 0001146  82.3802 277.7527 14.58537053736664
SPOT 7                  
1 40053U 14034A   26192.97442670  .00000127  00000+0  35061-4 0  9991
2 40053  98.0623 254.8258 0001562  96.8863 263.2516 14.60978875640752
